NORAD_CAT_ID,OBJECT_NAME,OBJECT_TYPE,EPOCH,MEAN_MOTION,ECCENTRICITY,INCLINATION,RA_OF_ASC_NODE,ARG_OF_PERICENTER,MEAN_ANOMALY,BSTAR,MEAN_MOTION_DOT,MEAN_MOTION_DDOT,TLE_LINE0,TLE_LINE1,TLE_LINE2,SEMIMAJOR_AXIS,PERIOD,APOGEE,PERIGEE,DECAYED
52646.0,STARLINK-3832,PAYLOAD,2022-09-11 14:00:01,15.08870235,0.0002211999999999,53.2171,223.2818,43.9192,212.113,-0.0020412,-0.00032655,0.0,0 STARLINK-3832,1 52646U 22052BA  22254.58334491 -.00032655  00000-0 -20412-2 0  9990,2 52646  53.2171 223.2818 0002212  43.9192 212.1130 15.08870235  1308,6917.788000000001,95.436,541.183,538.123,0.0
52646.0,STARLINK-3832,PAYLOAD,2022-09-11 22:00:00,15.08850633,0.000208,53.2175,221.7847,47.8932,219.7567,-0.00049646,-8.183e-05,0.0,0 STARLINK-3832,1 52646U 22052BA  22254.91667824 -.00008183  00000-0 -49646-3 0  9996,2 52646  53.2175 221.7847 0002080  47.8932 219.7567 15.08850633  1302,6917.848000000001,95.437,541.1519999999998,538.274,0.0
52646.0,STARLINK-3832,PAYLOAD,2022-09-12 04:00:00,15.08850117,0.0002193,53.2174,220.6639,43.27,143.0851,-0.0016253,-0.0002607,0.0,0 STARLINK-3832,1 52646U 22052BA  22255.16667824 -.00026070  00000-0 -16253-2 0  9996,2 52646  53.2174 220.6639 0002193  43.2700 143.0851 15.08850117 19093,6917.849,95.437,541.232,538.197,0.0
52646.0,STARLINK-3832,PAYLOAD,2022-09-12 14:00:01,15.08846684,0.0002059,53.2174,218.7927,41.9538,248.8976,-0.0018893,-0.00030237,0.0,0 STARLINK-3832,1 52646U 22052BA  22255.58334491 -.00030237  00000-0 -18893-2 0  9995,2 52646  53.2174 218.7927 0002059  41.9538 248.8976 15.08846684  1307,6917.86,95.437,541.149,538.3009999999998,0.0
52646.0,STARLINK-3832,PAYLOAD,2022-09-12 20:00:01,15.08819858,0.000194,53.2175,217.6696,46.2318,163.3791,0.0029267,0.00046573,0.0,0 STARLINK-3832,1 52646U 22052BA  22255.83335648  .00046573  00000-0  29267-2 0  9993,2 52646  53.2175 217.6696 0001940  46.2318 163.3791 15.08819858 19196,6917.941999999999,95.439,541.149,538.465,0.0
52646.0,STARLINK-3832,PAYLOAD,2022-09-12 22:00:00,15.08839641,0.0001946,53.2176,217.2958,47.2508,255.1872,0.0013458,0.00021195,0.0,0 STARLINK-3832,1 52646U 22052BA  22255.91667824  .00021195  00000-0  13458-2 0  9994,2 52646  53.2176 217.2958 0001946  47.2508 255.1872 15.08839641  1308,6917.880999999999,95.438,541.0930000000002,538.4,0.0
52646.0,STARLINK-3832,PAYLOAD,2022-09-13 04:00:00,15.08857484,0.0002082,53.2174,216.1751,42.7049,178.4326,-0.0028396,-0.0004522,0.0,0 STARLINK-3832,1 52646U 22052BA  22256.16667824 -.00045220  00000-0 -28396-2 0  9996,2 52646  53.2174 216.1751 0002082  42.7049 178.4326 15.08857484 19245,6917.8269999999975,95.436,541.132,538.252,0.0
52646.0,STARLINK-3832,PAYLOAD,2022-09-13 14:00:01,15.08845602,0.0001943999999999,53.2172,214.3038,42.2262,283.4018,-0.0018195999999999,-0.00029135,0.0,0 STARLINK-3832,1 52646U 22052BA  22256.58334491 -.00029135  00000-0 -18196-2 0  9997,2 52646  53.2172 214.3038 0001944  42.2262 283.4018 15.08845602  1301,6917.863,95.437,541.073,538.383,0.0
52646.0,STARLINK-3832,PAYLOAD,2022-09-13 16:00:00,15.08831779,0.0001863,53.2175,213.9302,43.5589,14.970999999999998,-0.00025564,-4.353e-05,0.0,0 STARLINK-3832,1 52646U 22052BA  22256.66667824 -.00004353  00000-0 -25564-3 0  9998,2 52646  53.2175 213.9302 0001863  43.5589  14.9710 15.08831779 19326,6917.906,95.438,541.059,538.482,0.0
52646.0,STARLINK-3832,PAYLOAD,2022-09-13 22:00:00,15.08837703,0.0001831,53.2173,212.8072,46.3037,290.9158,-0.0007069,-0.0001152,0.0,0 STARLINK-3832,1 52646U 22052BA  22256.91667824 -.00011520  00000-0 -70690-3 0  9990,2 52646  53.2173 212.8072 0001831  46.3037 290.9158 15.08837703  1304,6917.887,95.438,541.019,538.486,0.0
52646.0,STARLINK-3832,PAYLOAD,2022-09-14 14:00:01,15.0883734,0.0001895,53.2168,209.8151,42.6385,317.7224,-0.00076051,-0.00012371,0.0,0 STARLINK-3832,1 52646U 22052BA  22257.58334491 -.00012371  00000-0 -76051-3 0  9997,2 52646  53.2168 209.8151 0001895  42.6385 317.7224 15.08837340  1317,6917.889,95.438,541.064,538.443,0.0
52646.0,STARLINK-3832,PAYLOAD,2022-09-14 20:00:01,15.08825376,0.0001818,53.2167,208.6922,46.8555,232.1965,0.002587,0.00041108,0.0,0 STARLINK-3832,1 52646U 22052BA  22257.83334491  .00041108  00000-0  25870-2 0  9995,2 52646  53.2167 208.6922 0001818  46.8555 232.1965 15.08825376 19495,6917.925,95.438,541.048,538.5319999999998,0.0
52646.0,STARLINK-3832,PAYLOAD,2022-09-14 22:00:00,15.08849027,0.0001831999999999,53.2168,208.3187,46.5669,325.3759,0.0002944,4.402e-05,0.0,0 STARLINK-3832,1 52646U 22052BA  22257.91667824  .00004402  00000-0  29440-3 0  9997,2 52646  53.2168 208.3187 0001832  46.5669 325.3759 15.08849027  1301,6917.853,95.437,540.985,538.45,0.0
52646.0,STARLINK-3832,PAYLOAD,2022-09-15 04:00:00,15.088568900000002,0.000198,53.2166,207.1978,41.7626,248.8862,-0.0027824,-0.00044319,0.0,0 STARLINK-3832,1 52646U 22052BA  22258.16667824 -.00044319  00000-0 -27824-2 0  9991,2 52646  53.2166 207.1978 0001980  41.7626 248.8862 15.08856890 19543,6917.829000000002,95.436,541.063,538.3240000000002,0.0
52646.0,STARLINK-3832,PAYLOAD,2022-09-15 14:00:01,15.08837813,0.000184,53.2164,205.3261,41.8128,353.3365,-0.0001075999999999,-2e-05,0.0,0 STARLINK-3832,1 52646U 22052BA  22258.58334491 -.00002000  00000-0 -10760-3 0  9991,2 52646  53.2164 205.3261 0001840  41.8128 353.3365 15.08837813  1308,6917.887,95.438,541.025,538.479,0.0
52646.0,STARLINK-3832,PAYLOAD,2022-09-15 16:00:00,15.08819397,0.0001771,53.2164,204.9518,42.475,85.5779,0.0026425,0.00041995,0.0,0 STARLINK-3832,1 52646U 22052BA  22258.66667824  .00041995  00000-0  26425-2 0  9997,2 52646  53.2164 204.9518 0001771  42.4750  85.5779 15.08819397  1309,6917.943,95.439,541.034,538.5830000000002,0.0
52646.0,STARLINK-3832,PAYLOAD,2022-09-16 04:09:11,15.08837575,0.0002114,53.2182,202.6783,52.435,307.6833,0.00012267,1.665e-05,0.0,0 STARLINK-3832,1 52646U 22052BA  22259.17305549  .00001665  00000-0  12267-3 0  9997,2 52646  53.2182 202.6783 0002114  52.4350 307.6833 15.08837575 19707,6917.888000000001,95.438,541.215,538.29,0.0
52646.0,STARLINK-3832,PAYLOAD,2022-09-16 05:44:34,15.08841772,0.0001985,53.218,202.3812,42.4094,317.7052,8.360299999999999e-05,1.043e-05,0.0,0 STARLINK-3832,1 52646U 22052BA  22259.23929383  .00001043  00000-0  83603-4 0  9995,2 52646  53.2180 202.3812 0001985  42.4094 317.7052 15.08841772 19343,6917.875,95.437,541.113,538.367,0.0
52646.0,STARLINK-3832,PAYLOAD,2022-09-17 02:24:36,15.08835943,0.0001950999999999,53.2185,198.5147,45.2754,314.8397,-9.2193e-05,-1.755e-05,0.0,0 STARLINK-3832,1 52646U 22052BA  22260.10042657 -.00001755  00000-0 -92193-4 0  9999,2 52646  53.2185 198.5147 0001951  45.2754 314.8397 15.08835943 19840,6917.893,95.438,541.107,538.408,0.0
52646.0,STARLINK-3832,PAYLOAD,2022-09-17 05:35:23,15.08834404,0.0001899999999999,53.2181,197.9206,44.3244,315.79,-8.0673e-05,-1.572e-05,0.0,0 STARLINK-3832,1 52646U 22052BA  22260.23290734 -.00001572  00000-0 -80673-4 0  9991,2 52646  53.2181 197.9206 0001900  44.3244 315.7900 15.08834404 19495,6917.897,95.438,541.077,538.448,0.0
52646.0,STARLINK-3832,PAYLOAD,2022-09-17 13:32:18,15.08837345,0.0001899,53.2183,196.4339,44.989,315.1256,-3.6737e-05,-8.73e-06,0.0,0 STARLINK-3832,1 52646U 22052BA  22260.56410438 -.00000873  00000-0 -36737-4 0  9997,2 52646  53.2183 196.4339 0001899  44.9890 315.1256 15.08837345 19549,6917.889,95.438,541.067,538.44,0.0
52646.0,STARLINK-3832,PAYLOAD,2022-09-18 02:15:23,15.08840695,0.0001918,53.2179,194.0561,39.4398,320.6733,2.712e-05,1.43e-06,0.0,0 STARLINK-3832,1 52646U 22052BA  22261.09401946  .00000143  00000-0  27120-4 0  9994,2 52646  53.2179 194.0561 0001918  39.4398 320.6733 15.08840695 19991,6917.878000000002,95.438,541.07,538.4159999999998,0.0
52646.0,STARLINK-3832,PAYLOAD,2022-09-18 05:26:09,15.0884163,0.0001949,53.218,193.4625,35.4467,324.6655,-2.6182e-05,-7.05e-06,0.0,0 STARLINK-3832,1 52646U 22052BA  22261.22650113 -.00000705  00000-0 -26182-4 0  9994,2 52646  53.2180 193.4625 0001949  35.4467 324.6655 15.08841630 19643,6917.875,95.437,541.089,538.3919999999998,0.0
52646.0,STARLINK-3832,PAYLOAD,2022-09-19 03:41:34,15.08829598,0.0001881,53.2172,189.2987,34.8391,325.2724,2.5396e-05,1.16e-06,0.0,0 STARLINK-3832,1 52646U 22052BA  22262.15386770  .00000116  00000-0  25396-4 0  9992,2 52646  53.2172 189.2987 0001881  34.8391 325.2724 15.08829598 20153,6917.9119999999975,95.438,541.078,538.476,0.0
52646.0,STARLINK-3832,PAYLOAD,2022-09-19 11:38:29,15.08833207,0.0001889,53.217,187.8117,35.0706,325.041,4.907e-05,4.93e-06,0.0,0 STARLINK-3832,1 52646U 22052BA  22262.48506585  .00000493  00000-0  49070-4 0  9999,2 52646  53.2170 187.8117 0001889  35.0706 325.0410 15.08833207 19836,6917.901,95.438,541.073,538.4590000000002,0.0
52646.0,STARLINK-3832,PAYLOAD,2022-09-19 19:35:25,15.08838945,0.0001686999999999,53.2164,186.3249,35.9515,324.1591,8.777e-07,-2.74e-06,0.0,0 STARLINK-3832,1 52646U 22052BA  22262.81626367 -.00000274  00000-0  87770-6 0  9996,2 52646  53.2164 186.3249 0001687  35.9515 324.1591 15.08838945 20254,6917.884,95.438,540.9159999999998,538.582,0.0
52646.0,STARLINK-3832,PAYLOAD,2022-09-20 11:29:16,15.08850077,0.0001641999999999,53.2168,183.3514,37.6641,322.4466,-0.00010014,-1.882e-05,0.0,0 STARLINK-3832,1 52646U 22052BA  22263.47865911 -.00001882  00000-0 -10014-3 0  9990,2 52646  53.2168 183.3514 0001642  37.6641 322.4466 15.08850077 20353,6917.85,95.437,540.85,538.5790000000002,0.0
52646.0,STARLINK-3832,PAYLOAD,2022-09-21 12:55:27,15.08831864,0.0002239,53.2166,178.5928,38.3861,321.7290000000001,-1.3646e-05,-5.05e-06,0.0,0 STARLINK-3832,1 52646U 22052BA  22264.53851250 -.00000505  00000-0 -13646-4 0  9995,2 52646  53.2166 178.5928 0002239  38.3861 321.7290 15.08831864 20519,6917.905,95.438,541.319,538.221,0.0
52646.0,STARLINK-3832,PAYLOAD,2022-09-21 20:52:23,15.08829295,0.0002056999999999,53.2181,177.1078,42.9303,317.1849,-8.5979e-05,-1.656e-05,0.0,0 STARLINK-3832,1 52646U 22052BA  22264.86971823 -.00001656  00000-0 -85979-4 0  9996,2 52646  53.2181 177.1078 0002057  42.9303 317.1849 15.08829295 20566,6917.913000000001,95.438,541.201,538.355,0.0
